      2.10          N: GNSS NAV DATA                        RINEX VERSION / TYPE
fic2rin                                 03/18/2024 00:18:00 PGM / RUN BY / DATE
                                                            END OF HEADER
1  24  3 17  1 59 44.0  .174366869032D-03  .204636307899D-11  .000000000000D+00
     .300000000000D+01 -.195937500000D+02  .387158983869D-08 -.250575733759D+01
    -.117719173431D-05  .128986723721D-01  .417791306973D-05  .515400975418D+04
     .718400000000D+04  .232830643654D-06 -.298576959352D+01 -.894069671631D-07
     .990907815539D+00  .312156250000D+03  .100182291651D+01 -.773067915667D-08
     .114290474943D-09  .100000000000D+01  .230600000000D+04  .000000000000D+00
     .240000000000D+01  .630000000000D+02  .512227416039D-08  .300000000000D+01
     .000000000000D+00  .400000000000D+01
8  24  3 17  1 59 44.0  .601252540946D-04  .269437805400D-10  .000000000000D+00
     .210000000000D+02  .656250000000D+02  .471305346045D-08 -.115684788016D+00
     .356137752533D-05  .942351424601D-02  .587478280067D-05  .515360318756D+04
     .718400000000D+04  .108033418655D-06  .219626414132D+01  .428408384323D-07
     .954090423113D+00  .261281250000D+03  .339967105269D+00 -.832320383771D-08
    -.785747015231D-11  .100000000000D+01  .230600000000D+04  .000000000000D+00
     .240000000000D+01  .000000000000D+00  .512227416039D-08  .210000000000D+02
     .000000000000D+00  .400000000000D+01
13 24  3 17  6  0  0.0  .634815543890D-03  .329691829393D-11  .000000000000D+00
     .750000000000D+02 -.356562500000D+02  .440911222865D-08  .170816202595D+01
    -.189617276192D-05  .785415188875D-02  .831298530102D-05  .515365682793D+04
     .216000000000D+05 -.234693288803D-06 -.772327837389D+00 -.670552253723D-07
     .971150943032D+00  .226375000000D+03  .930512108684D+00 -.786211320286D-08
     .212151694112D-09  .100000000000D+01  .230600000000D+04  .000000000000D+00
     .240000000000D+01  .000000000000D+00 -.111758708954D-07  .750000000000D+02
     .144000000000D+05  .400000000000D+01
11 24  3 17  6  0  0.0 -.609059818089D-03 -.115960574476D-10  .000000000000D+00
     .110000000000D+02 -.118125000000D+02  .440268338944D-08  .121456108826D+01
    -.786036252975D-06  .122809130698D-02  .373274087906D-05  .515368128204D+04
     .216000000000D+05  .279396772385D-07 -.295966491904D+01  .409781932831D-07
     .966458093476D+00  .306593750000D+03 -.248327985878D+01 -.819426989566D-08
     .696457581682D-10  .100000000000D+01  .230600000000D+04  .000000000000D+00
     .240000000000D+01  .000000000000D+00 -.838190317154D-08  .267000000000D+03
     .144000000000D+05  .400000000000D+01
16 24  3 17  6  0  0.0 -.339289661497D-03  .886757334229D-11  .000000000000D+00
     .162000000000D+03  .662187500000D+02  .425696303388D-08  .295552563184D+01
     .325590372086D-05  .140023919521D-01  .826455652714D-05  .515375029564D+04
     .216000000000D+05  .111758708954D-07  .126817771612D+01 -.188127160072D-06
     .962254721680D+00  .220500000000D+03  .833150586123D+00 -.762674625602D-08
    -.285011871888D-09  .100000000000D+01  .230600000000D+04  .000000000000D+00
     .340000000000D+01  .000000000000D+00 -.102445483208D-07  .162000000000D+03
     .144000000000D+05  .400000000000D+01
28 24  3 17  6  0  0.0 -.167404767126D-03 -.139834810398D-10  .000000000000D+00
     .260000000000D+02  .468750000000D+00  .457019036677D-08 -.232887678453D+01
    -.186264514923D-08  .539903994650D-03  .797025859356D-05  .515360844231D+04
     .216000000000D+05  .186264514923D-07  .100935045218D+00 -.186264514923D-08
     .961812117278D+00  .227531250000D+03  .175456844409D+01 -.787032783074D-08
    -.133934150324D-09  .100000000000D+01  .230600000000D+04  .000000000000D+00
     .240000000000D+01  .000000000000D+00 -.931322574615D-08  .794000000000D+03
     .144000000000D+05  .400000000000D+01
18 24  3 17  6  0  0.0 -.577045604587D-03 -.750333128963D-11  .000000000000D+00
     .220000000000D+03 -.151250000000D+02  .423481925436D-08 -.155171208647D-01
    -.728294253349D-06  .388847151771D-02  .397674739361D-05  .515362052345D+04
     .216000000000D+05  .372529029846D-07 -.298921494846D+01 -.298023223877D-07
     .974800477450D+00  .309500000000D+03 -.303074473064D+01 -.813212444991D-08
     .696457581682D-10  .100000000000D+01  .230600000000D+04  .000000000000D+00
     .240000000000D+01  .000000000000D+00 -.838190317154D-08  .732000000000D+03
     .144000000000D+05  .400000000000D+01
14 24  3 17  6  0  0.0  .352542847395D-03  .977706804406D-11  .000000000000D+00
     .168000000000D+03  .441250000000D+02  .467305179422D-08 -.154485143516D+01
     .224821269512D-05  .413111434318D-02  .846572220325D-05  .515369108963D+04
     .216000000000D+05 -.121071934700D-06  .120688358885D+01 -.128522515297D-06
     .946099401340D+00  .210406250000D+03 -.295779759482D+01 -.794425948172D-08
    -.270725562521D-09  .100000000000D+01  .230600000000D+04  .000000000000D+00
     .240000000000D+01  .000000000000D+00 -.791624188423D-08  .424000000000D+03
     .144000000000D+05  .400000000000D+01
2  24  3 17  5 59 28.0 -.468995422125D-03  .625277607469D-11  .000000000000D+00
     .104000000000D+03  .950000000000D+01  .435196699118D-08  .227985576021D+01
     .376254320145D-06  .161179593997D-01  .266917049885D-05  .515371366119D+04
     .215680000000D+05  .203028321266D-06 -.309096583383D+01 -.260770320892D-07
     .967778969524D+00  .328750000000D+03 -.122017612187D+01 -.798426114795D-08
    -.767889128522D-10  .100000000000D+01  .230600000000D+04  .000000000000D+00
     .240000000000D+01  .000000000000D+00 -.176951289177D-07  .104000000000D+03
     .147000000000D+05  .400000000000D+01
17 24  3 17  5 59 44.0  .713403802365D-03 -.136424205266D-11  .000000000000D+00
     .350000000000D+02  .721250000000D+02  .406516933062D-08  .202808204210D+01
     .372342765331D-05  .134621736361D-01  .574812293053D-05  .515369210434D+04
     .215840000000D+05  .223517417908D-06  .228975727984D+01 -.223517417908D-07
     .969886738967D+00  .268156250000D+03 -.133047843051D+01 -.772246452879D-08
    -.278583032673D-10  .100000000000D+01  .230600000000D+04  .000000000000D+00
     .240000000000D+01  .000000000000D+00 -.111758708954D-07  .350000000000D+02
     .150900000000D+05  .400000000000D+01
25 24  3 17  5 59 44.0  .491503626108D-03  .102318153949D-11  .000000000000D+00
     .800000000000D+01  .515000000000D+02  .460662045566D-08 -.165061065755D+01
     .271759927273D-05  .118292155676D-01  .783242285252D-05  .515359970856D+04
     .215840000000D+05  .324100255966D-06  .116444451970D+01  .502914190292D-07
     .950683317628D+00  .222406250000D+03  .108369124715D+01 -.789282876800D-08
    -.259296515026D-09  .100000000000D+01  .230600000000D+04  .000000000000D+00
     .240000000000D+01  .000000000000D+00  .558793544769D-08  .800000000000D+01
     .162600000000D+05  .400000000000D+01
16 24  3 17  5 59 44.0 -.339289195836D-03  .886757334229D-11  .000000000000D+00
     .400000000000D+01  .662187500000D+02  .425660587615D-08  .295319191616D+01
     .325590372086D-05  .140023917193D-01  .826455652714D-05  .515375029373D+04
     .215840000000D+05  .111758708954D-07  .126817785510D+01 -.188127160072D-06
     .962254708514D+00  .220500000000D+03  .833150733878D+00 -.762638909829D-08
    -.285011871888D-09  .100000000000D+01  .230600000000D+04  .000000000000D+00
     .240000000000D+01  .000000000000D+00 -.102445483208D-07  .400000000000D+01
     .178800000000D+05  .400000000000D+01
16 24  3 17  7 59 44.0 -.339225400239D-03  .886757334229D-11  .000000000000D+00
     .180000000000D+02  .585312500000D+02  .435625288399D-08 -.227991872274D+01
     .291131436825D-05  .140040854458D-01  .767782330513D-05  .515374684715D+04
     .287840000000D+05  .165775418282D-06  .126812204331D+01 -.115483999252D-06
     .962252897421D+00  .232375000000D+03  .833209793344D+00 -.768460580896D-08
    -.163578242262D-09  .100000000000D+01  .230600000000D+04  .000000000000D+00
     .240000000000D+01  .000000000000D+00 -.102445483208D-07  .180000000000D+02
     .216000000000D+05  .400000000000D+01
17 24  3 17  7 59 44.0  .713394023478D-03 -.136424205266D-11  .000000000000D+00
     .640000000000D+02  .886875000000D+02  .404481133977D-08  .307812715505D+01
     .464729964733D-05  .134609431261D-01  .619143247604D-05  .515369565582D+04
     .287840000000D+05  .143423676491D-06  .228970199763D+01  .298023223877D-07
     .969886434680D+00  .263625000000D+03 -.133035933727D+01 -.768960601724D-08
    -.471448209139D-10  .100000000000D+01  .230600000000D+04  .000000000000D+00
     .240000000000D+01  .000000000000D+00 -.111758708954D-07  .640000000000D+02
     .216000000000D+05  .400000000000D+01
